NORAD_CAT_ID,OBJECT_NAME,OBJECT_TYPE,EPOCH,MEAN_MOTION,ECCENTRICITY,INCLINATION,RA_OF_ASC_NODE,ARG_OF_PERICENTER,MEAN_ANOMALY,BSTAR,MEAN_MOTION_DOT,MEAN_MOTION_DDOT,TLE_LINE0,TLE_LINE1,TLE_LINE2,SEMIMAJOR_AXIS,PERIOD,APOGEE,PERIGEE,DECAYED
52356.0,STARLINK-3801,PAYLOAD,2024-04-12 08:41:38,15.08839395,0.0001569,53.2177,85.0802,101.1704,258.9465,4.4591e-05,4.22e-06,0.0,0 STARLINK-3801,1 52356U 22045AB  24103.36225532  .00000422  00000-0  44591-4 0  9997,2 52356  53.2177  85.0802 0001569 101.1704 258.9465 15.08839395110660,6917.882,95.438,540.833,538.662,0.0
52356.0,STARLINK-3801,PAYLOAD,2024-04-13 03:46:17,15.08832787,0.0001402,53.2173,81.511,102.8427,257.2722,5.0372e-05,5.14e-06,0.0,0 STARLINK-3801,1 52356U 22045AB  24104.15714171  .00000514  00000-0  50372-4 0  9993,2 52356  53.2173  81.5110 0001402 102.8427 257.2722 15.08832787110784,6917.902,95.438,540.737,538.798,0.0
52356.0,STARLINK-3801,PAYLOAD,2024-04-14 03:37:03,15.08838431,0.0001485,53.2173,77.0505,111.8143,248.3008,0.00011449,1.535e-05,0.0,0 STARLINK-3801,1 52356U 22045AB  24105.15073972  .00001535  00000-0  11449-3 0  9996,2 52356  53.2173  77.0505 0001485 111.8143 248.3008 15.08838431110935,6917.885,95.438,540.777,538.723,0.0
52356.0,STARLINK-3801,PAYLOAD,2024-04-15 05:03:14,15.0884158,0.0001223,53.2163,72.2943,94.3239,265.7893,0.00013322,1.833e-05,0.0,0 STARLINK-3801,1 52356U 22045AB  24106.21057989  .00001833  00000-0  13322-3 0  9997,2 52356  53.2163  72.2943 0001223  94.3239 265.7893 15.08841580111090,6917.876,95.437,540.587,538.895,0.0
52356.0,STARLINK-3801,PAYLOAD,2024-04-15 08:14:00,15.08842432,0.0001234,53.2163,71.6991,94.7803,265.333,0.000136,1.877e-05,0.0,0 STARLINK-3801,1 52356U 22045AB  24106.34305939  .00001877  00000-0  13600-3 0  9999,2 52356  53.2163  71.6991 0001234  94.7803 265.3330 15.08842432111111,6917.873,95.437,540.592,538.884,0.0
52356.0,STARLINK-3801,PAYLOAD,2024-04-16 06:29:24,15.08847625,0.0001275,53.2165,67.5372,89.0093,271.1045,0.00014303,1.99e-05,0.0,0 STARLINK-3801,1 52356U 22045AB  24107.27041751  .00001990  00000-0  14303-3 0  9998,2 52356  53.2165  67.5372 0001275  89.0093 271.1045 15.08847625111255,6917.857,95.437,540.604,538.84,0.0
52356.0,STARLINK-3801,PAYLOAD,2024-04-17 06:20:10,15.08856794,0.0001465,53.2167,63.0768,83.6137,276.5021,0.00037735,5.725e-05,0.0,0 STARLINK-3801,1 52356U 22045AB  24108.26401344  .00005725  00000-0  37735-3 0  9990,2 52356  53.2167  63.0768 0001465  83.6137 276.5021 15.08856794111404,6917.829,95.436,540.708,538.681,0.0
52356.0,STARLINK-3801,PAYLOAD,2024-04-18 01:24:49,15.08835707,0.0002155,53.2178,59.5047,127.7447,232.374,3.5659e-05,2.79e-06,0.0,0 STARLINK-3801,1 52356U 22045AB  24109.05890099  .00000279  00000-0  35659-4 0  9990,2 52356  53.2178  59.5047 0002155 127.7447 232.3740 15.08835707111529,6917.894,95.438,541.249,538.268,0.0
52356.0,STARLINK-3801,PAYLOAD,2024-04-19 02:50:59,15.08843906,0.0001458,53.2174,54.7495,106.4364,253.6788,0.00032566,4.899e-05,0.0,0 STARLINK-3801,1 52356U 22045AB  24110.11874928  .00004899  00000-0  32566-3 0  9997,2 52356  53.2174  54.7495 0001458 106.4364 253.6788 15.08843906111681,6917.868,95.437,540.742,538.725,0.0
52356.0,STARLINK-3801,PAYLOAD,2024-04-19 06:01:46,15.08838774,0.0001762,53.2186,54.1492,100.8367,259.2823,0.00023498,3.454e-05,0.0,0 STARLINK-3801,1 52356U 22045AB  24110.25123105  .00003454  00000-0  23498-3 0  9996,2 52356  53.2186  54.1492 0001762 100.8367 259.2823 15.08838774111706,6917.884,95.438,540.968,538.53,0.0
52356.0,STARLINK-3801,PAYLOAD,2024-04-20 01:06:23,15.08872564,0.0001572,53.2179,50.5815,92.7989,267.3184,0.0010031,0.00015727,0.0,0 STARLINK-3801,1 52356U 22045AB  24111.04610354  .00015727  00000-0  10031-2 0  9995,2 52356  53.2179  50.5815 0001572  92.7989 267.3184 15.08872564111823,6917.781,95.435,540.733,538.558,0.0
52356.0,STARLINK-3801,PAYLOAD,2024-04-20 05:52:32,15.08879786,0.00016,53.2181,49.6898,96.7783,263.3391,0.00097456,0.00015273,0.0,0 STARLINK-3801,1 52356U 22045AB  24111.24481895  .00015273  00000-0  97456-3 0  9996,2 52356  53.2181  49.6898 0001600  96.7783 263.3391 15.08879786111856,6917.759,95.435,540.731,538.517,0.0
52356.0,STARLINK-3801,PAYLOAD,2024-04-20 20:10:59,15.0886244,0.0001048,53.2184,47.0145,124.2455,235.8637,5.5074e-05,5.89e-06,0.0,0 STARLINK-3801,1 52356U 22045AB  24111.84097005  .00000589  00000-0  55074-4 0  9993,2 52356  53.2184  47.0145 0001048 124.2455 235.8637 15.08862440111941,6917.812,95.436,540.402,538.952,0.0
52356.0,STARLINK-3801,PAYLOAD,2024-04-21 02:32:32,15.0883396,0.0001431,53.2178,45.8265,100.146,259.9694,-0.0008457,-0.0001372,0.0,0 STARLINK-3801,1 52356U 22045AB  24112.10593386 -.00013720  00000-0 -84570-3 0  9991,2 52356  53.2178  45.8265 0001431 100.1460 259.9694 15.08833960111987,6917.899,95.438,540.754,538.774,0.0
52356.0,STARLINK-3801,PAYLOAD,2024-04-21 18:26:25,15.08821691,0.0001435,53.2186,42.8603,93.1455,266.9702,0.000501,7.69e-05,0.0,0 STARLINK-3801,1 52356U 22045AB  24112.76834733  .00007690  00000-0  50100-3 0  9996,2 52356  53.2186  42.8603 0001435  93.1455 266.9702 15.08821691112086,6917.936,95.439,540.794,538.809,0.0
52356.0,STARLINK-3801,PAYLOAD,2024-04-22 02:23:20,15.08835367,0.0001693,53.2192,41.3702,110.4282,249.6892,0.00037797,5.732e-05,0.0,0 STARLINK-3801,1 52356U 22045AB  24113.09954775  .00005732  00000-0  37797-3 0  9994,2 52356  53.2192  41.3702 0001693 110.4282 249.6892 15.08835367112133,6917.895,95.438,540.931,538.588,0.0
52356.0,STARLINK-3801,PAYLOAD,2024-04-22 05:34:07,15.08840606,0.0001604,53.2186,40.7725,107.9722,252.1445,0.0011228,0.00017627,0.0,0 STARLINK-3801,1 52356U 22045AB  24113.23202964  .00017627  00000-0  11228-2 0  9992,2 52356  53.2186  40.7725 0001604 107.9722 252.1445 15.08840606112153,6917.879,95.438,540.853,538.634,0.0
52356.0,STARLINK-3801,PAYLOAD,2024-04-23 02:14:08,15.08834057,0.0001394,53.2181,36.9031,126.1911,233.921,0.00013178,1.81e-05,0.0,0 STARLINK-3801,1 52356U 22045AB  24114.09315381  .00001810  00000-0  13178-3 0  9999,2 52356  53.2181  36.9031 0001394 126.1911 233.9210 15.08834057112288,6917.899,95.438,540.728,538.799,0.0
52356.0,STARLINK-3801,PAYLOAD,2024-04-23 05:24:54,15.08835025,0.0001518,53.2181,36.3172,130.4084,229.704,0.00015666,2.206e-05,0.0,0 STARLINK-3801,1 52356U 22045AB  24114.22563504  .00002206  00000-0  15666-3 0  9990,2 52356  53.2181  36.3172 0001518 130.4084 229.7040 15.08835025112308,6917.896,95.438,540.811,538.71,0.0
52356.0,STARLINK-3801,PAYLOAD,2024-04-24 05:15:42,15.08846034,0.0001554,53.2184,31.8539,85.0812,275.0358,0.00075379,0.00011731,0.0,0 STARLINK-3801,1 52356U 22045AB  24115.21924148  .00011731  00000-0  75379-3 0  9995,2 52356  53.2184  31.8539 0001554  85.0812 275.0358 15.08846034112456,6917.862,95.437,540.802,538.652,0.0
52356.0,STARLINK-3801,PAYLOAD,2024-04-24 22:44:56,15.08850801,0.000154,53.2179,28.5823,96.9283,263.1885,0.00032079,4.823e-05,0.0,0 STARLINK-3801,1 52356U 22045AB  24115.94787752  .00004823  00000-0  32079-3 0  9997,2 52356  53.2179  28.5823 0001540  96.9283 263.1885 15.08850801112569,6917.847,95.437,540.778,538.647,0.0
52356.0,STARLINK-3801,PAYLOAD,2024-04-25 03:31:05,15.08851653,0.0001241,53.218,27.6913,97.455,262.6583,0.00038298,5.814e-05,0.0,0 STARLINK-3801,1 52356U 22045AB  24116.14659569  .00005814  00000-0  38298-3 0  9994,2 52356  53.2180  27.6913 0001241  97.4550 262.6583 15.08851653112590,6917.845,95.437,540.568,538.851,0.0
52356.0,STARLINK-3801,PAYLOAD,2024-04-25 22:35:43,15.08843641,0.0001136,53.2189,24.1233,89.2682,270.844,0.00010109,1.322e-05,0.0,0 STARLINK-3801,1 52356U 22045AB  24116.94147744  .00001322  00000-0  10109-3 0  9990,2 52356  53.2189  24.1233 0001136  89.2682 270.8440 15.08843641112719,6917.869,95.437,540.52,538.948,0.0
52356.0,STARLINK-3801,PAYLOAD,2024-04-26 03:21:52,15.08850206,0.0001453,53.2187,23.2302,100.7567,259.3589,0.00029689,4.441e-05,0.0,0 STARLINK-3801,1 52356U 22045AB  24117.14019565  .00004441  00000-0  29689-3 0  9990,2 52356  53.2187  23.2302 0001453 100.7567 259.3589 15.08850206112741,6917.849,95.437,540.719,538.709,0.0
52356.0,STARLINK-3801,PAYLOAD,2024-04-26 11:18:48,15.08854216,0.0001454,53.2189,21.7438,92.5357,267.5801,0.00041183,6.275e-05,0.0,0 STARLINK-3801,1 52356U 22045AB  24117.47139371  .00006275  00000-0  41183-3 0  9994,2 52356  53.2189  21.7438 0001454  92.5357 267.5801 15.08854216112790,6917.837,95.437,540.708,538.696,0.0
52356.0,STARLINK-3801,PAYLOAD,2024-04-26 20:51:07,15.08834333,0.0001274,53.218,19.9615,87.8553,272.2585,3.9756e-06,-2.25e-06,0.0,0 STARLINK-3801,1 52356U 22045AB  24117.86883750 -.00000225  00000-0  39756-5 0  9999,2 52356  53.2180  19.9615 0001274  87.8553 272.2585 15.08834333112859,6917.898,95.438,540.644,538.881,0.0
52356.0,STARLINK-3801,PAYLOAD,2024-04-27 03:12:39,15.08853164,0.0001337,53.218,18.7703,88.7089,271.4057,0.00042472,6.48e-05,0.0,0 STARLINK-3801,1 52356U 22045AB  24118.13379336  .00006480  00000-0  42472-3 0  9995,2 52356  53.2180  18.7703 0001337  88.7089 271.4057 15.08853164112890,6917.84,95.437,540.63,538.78,0.0
52356.0,STARLINK-3801,PAYLOAD,2024-04-27 20:41:55,15.08821516,0.0001048,53.2181,15.5001,86.0788,274.0324,-0.00035547,-5.938e-05,0.0,0 STARLINK-3801,1 52356U 22045AB  24118.86244379 -.00005938  00000-0 -35547-3 0  9997,2 52356  53.2181  15.5001 0001048  86.0788 274.0324 15.08821516113009,6917.937,95.439,540.527,539.077,0.0
52356.0,STARLINK-3801,PAYLOAD,2024-04-27 22:17:18,15.08821225,0.0001068,53.2181,15.2022,55.8336,304.2757,-0.00028745,-4.857e-05,0.0,0 STARLINK-3801,1 52356U 22045AB  24118.92868590 -.00004857  00000-0 -28745-3 0  9992,2 52356  53.2181  15.2022 0001068  55.8336 304.2757 15.08821225113018,6917.938,95.439,540.542,539.064,0.0
52356.0,STARLINK-3801,PAYLOAD,2024-04-28 20:32:42,15.08838541,0.0001282,53.2179,11.0383,119.1904,240.9216,0.00031271,4.692e-05,0.0,0 STARLINK-3801,1 52356U 22045AB  24119.85604680  .00004692  00000-0  31271-3 0  9996,2 52356  53.2179  11.0383 0001282 119.1904 240.9216 15.08838541113152,6917.885,95.438,540.637,538.863,0.0
